[
    {
        "Altitude(m)": 624790.8324844923,
        "Argument of Periapsis(deg)": 0.0,
        "Eccentricity": 0.0,
        "Inclination(deg)": 60.0,
        "Latitude(deg)": -59.147229043519346,
        "Longitude(deg)": -48.96528145025272,
        "Mean Anomaly(deg)": -81.8182,
        "RAAN(deg)": 125.00000000000001,
        "Satellite Name": "Test1 567",
        "Satellite Number": 567,
        "Semi-Major Axis(m)": 6980739.136638005,
        "Time(s)": 0
    },
    {
        "Altitude(m)": 624737.4872171228,
        "Argument of Periapsis(deg)": 0.00010418945913296404,
        "Eccentricity": 0.0,
        "Inclination(deg)": 60.0,
        "Latitude(deg)": -58.994682850730136,
        "Longitude(deg)": -47.84577643760737,
        "Mean Anomaly(deg)": -81.19809385453816,
        "RAAN(deg)": 124.99957995086027,
        "Satellite Name": "Test1 567",
        "Satellite Number": 567,
        "Semi-Major Axis(m)": 6980739.136638005,
        "Time(s)": 10
    }
]